SAR-LUPE 2              
1 31797U 07030A   26201.60673591  .00026660  00000+0  40478-3 0  9990
2 31797  98.1058 310.3124 0005305 217.5887 142.4995 15.54563149 62123
SAPPHIRE                
1 39088U 13009C   26201.62494825  .00000042  00000+0  29504-4 0  9991
2 39088  98.4280  20.2895 0011902 144.6071 215.5907 14.35248440701375
PRAETORIAN SDA_602      
1 65565U 25203A   26201.35162513  .00000083  00000+0  63772-4 0  9995
2 65565  81.3050 340.0634 0007142 105.8825 254.3119 13.83888558 43288
PRAETORIAN SDA_603      
1 65566U 25203B   26201.37963589  .00000172  00000+0  14363-3 0  9990
2 65566  81.3058 339.9585 0010807 101.9020 258.3349 13.83962276 43295
PRAETORIAN SDA_604      
1 65567U 25203C   26201.34827285  .00000085  00000+0  67001-4 0  9991
2 65567  81.3072 340.4518 0006674 109.8220 250.3656 13.83050747 43262
PRAETORIAN SDA_605      
1 65568U 25203D   26201.37973840  .00000084  00000+0  66033-4 0  9997
2 65568  81.3037 340.0604 0009370 100.9134 259.3077 13.83200777 43286
PRAETORIAN SDA_606      
1 65569U 25203E   26201.36491333  .00000037  00000+0  22620-4 0  9991
2 65569  81.3073 340.3142 0007241 104.3194 255.8766 13.83200236 43271
PRAETORIAN SDA_607      
1 65570U 25203F   26201.64241219  .00000086  00000+0  67001-4 0  9996
2 65570  81.3061 339.6719 0010012 101.8284 258.3996 13.83758389 43330
PRAETORIAN SDA_608      
1 65571U 25203G   26201.33548352  .00000072  00000+0  54068-4 0  9995
2 65571  81.3026 340.1175 0007140 108.3715 251.8218 13.83819977 43273
PRAETORIAN SDA_609      
1 65572U 25203H   26201.33100730  .00000199  00000+0  16794-3 0  9993
2 65572  81.3069 340.0991 0008003 102.7056 257.4996 13.84212068 43286
PRAETORIAN SDA_610      
1 65573U 25203J   26201.39078041  .00000089  00000+0  70040-4 0  9992
2 65573  81.3027 340.0318 0007875 107.6403 252.5614 13.83528924 43283
PRAETORIAN SDA_611      
1 65574U 25203K   26201.40050791  .00000212  00000+0  18228-3 0  9994
2 65574  81.3031 340.2077 0006768 112.0358 248.1518 13.83311169 43276
PRAETORIAN SDA_612      
1 65575U 25203L   26201.34867567  .00000149  00000+0  12119-3 0  9997
2 65575  81.3047 339.7599 0010433 102.8261 257.4062 13.85041940 43300
PRAETORIAN SDA_613      
1 65576U 25203M   26201.34794234  .00000078  00000+0  60293-4 0  9996
2 65576  81.3019 340.2786 0006825 103.4373 256.7544 13.82768283 43261
PRAETORIAN SDA_614      
1 65577U 25203N   26201.34411895  .00000053  00000+0  36647-4 0  9995
2 65577  81.3034 339.8504 0008287 101.2326 258.9763 13.84778915 43306
PRAETORIAN SDA_615      
1 65578U 25203P   26201.32916210  .00000113  00000+0  90167-4 0  9999
2 65578  81.3042 339.8494 0010174 101.5407 258.6893 13.84439018 43292
PRAETORIAN SDA_616      
1 65579U 25203Q   26201.32837804  .00000151  00000+0  12712-3 0  9992
2 65579  81.3083 340.4413 0006634 109.6634 250.5239 13.83270629 43266
PRAETORIAN SDA_617      
1 65580U 25203R   26201.64216085  .00000072  00000+0  54593-4 0  9997
2 65580  81.3057 339.9794 0008535 100.8509 259.3608 13.83152688 43317
PRAETORIAN SDA_618      
1 65581U 25203S   26201.36957955  .00000053  00000+0  37183-4 0  9990
2 65581  81.3041 339.7455 0010880 104.1274 256.1093 13.84225720 43306
PRAETORIAN SDA_619      
1 65582U 25203T   26201.49085973  .00000165  00000+0  13850-3 0  9995
2 65582  81.3065 339.9662 0009381 101.8695 258.3515 13.83806629 43934
PRAETORIAN SDA_620      
1 65583U 25203U   26201.38357708  .00000160  00000+0  13527-3 0  9998
2 65583  81.3054 340.1008 0008660  99.2764 260.9372 13.83208392 43288
PRAETORIAN SDA_621      
1 65584U 25203V   26201.34809625  .00000086  00000+0  66464-4 0  9991
2 65584  81.3039 340.0289 0008526  96.8477 263.3650 13.83804478 43280
PRAETORIAN SDA_601      
1 65585U 25203W   26201.33390827  .00000439  00000+0  39025-3 0  9994
2 65585  81.3063 340.3770 0006712 113.2133 246.9731 13.83171134 43265
VICTUS HAZE PUMA        
1 69646U 26142A   26200.25832431  .00001791  00000+0  82930-4 0  9997
2 69646  97.4459  97.5147 0026471 252.2212 107.6135 15.21137439  4542
